{"type": "FeatureCollection", "features": [ {"type": "Feature", "properties": {"norad_id": 66535, "name": "STARLINK-35514", "group": "last-30-days", "lat": 9.730918545683451, "lon": 35.37980444887949, "alt_km": 443.303602357837, "timestamp": "2025-12-17T17:50:17.972043+00:00", "meta": {"OBJECT_NAME": "STARLINK-35514", "OBJECT_ID": "2025-265V", "EPOCH": "2025-12-17T08:00:04.999680", "MEAN_MOTION": 15.42089997, "ECCENTRICITY": 0.0001012, "INCLINATION": 43, "RA_OF_ASC_NODE": 27.1396, "ARG_OF_PERICENTER": 273.6894, "MEAN_ANOMALY": 343.869, "EPHEMERIS_TYPE": 0, "CLASSIFICATION_TYPE": "U", "NORAD_CAT_ID": 66535, "ELEMENT_SET_NO": 999, "REV_AT_EPOCH": 573, "BSTAR": -0.048522921, "MEAN_MOTION_DOT": -0.01902542, "MEAN_MOTION_DDOT": 0}, "tle": {"line1": "1 66535U 25265V   25351.33339120 -.01902542  00000+0 -48523-1 0  9992", "line2": "2 66535  43.0000  27.1396 0001012 273.6894 343.8690 15.42089997  5737"}}, "geometry": {"type": "Point", "coordinates": [35.37980444887949, 9.730918545683451]}}, {"type": "Feature", "properties": {"norad_id": 66536, "name": "STARLINK-35640", "group": "last-30-days", "lat": 35.79906521798947, "lon": 75.36907288271391, "alt_km": 409.7859974822795, "timestamp": "2025-12-17T17:50:17.972054+00:00", "meta": {"OBJECT_NAME": "STARLINK-35640", "OBJECT_ID": "2025-265W", "EPOCH": "2025-12-16T12:12:48.773376", "MEAN_MOTION": 15.50602173, "ECCENTRICITY": 0.00017718, "INCLINATION": 43.0004, "RA_OF_ASC_NODE": 31.8836, "ARG_OF_PERICENTER": 262.7593, "MEAN_ANOMALY": 97.3066, "EPHEMERIS_TYPE": 0, "CLASSIFICATION_TYPE": "U", "NORAD_CAT_ID": 66536, "ELEMENT_SET_NO": 999, "REV_AT_EPOCH": 434, "BSTAR": 0.0011261208, "MEAN_MOTION_DOT": 0.0006634, "MEAN_MOTION_DDOT": 0}, "tle": {"line1": "1 66536U 25265W   25350.50889784  .00066340  00000+0  11261-2 0  9991", "line2": "2 66536  43.0004  31.8836 0001771 262.7593  97.3066 15.50602173  4340"}}, "geometry": {"type": "Point", "coordinates": [75.36907288271391, 35.79906521798947]}}, {"type": "Feature", "properties": {"norad_id": 66537, "name": "STARLINK-35582", "group": "last-30-days", "lat": 36.46664523834129, "lon": 77.13346791319671, "alt_km": 409.7477017931069, "timestamp": "2025-12-17T17:50:17.972065+00:00", "meta": {"OBJECT_NAME": "STARLINK-35582", "OBJECT_ID": "2025-265X", "EPOCH": "2025-12-17T03:39:53.864064", "MEAN_MOTION": 15.50595338, "ECCENTRICITY": 0.00015129, "INCLINATION": 43.0011, "RA_OF_ASC_NODE": 28.1144, "ARG_OF_PERICENTER": 268.1214, "MEAN_ANOMALY": 91.9473, "EPHEMERIS_TYPE": 0, "CLASSIFICATION_TYPE": "U", "NORAD_CAT_ID": 66537, "ELEMENT_SET_NO": 999, "REV_AT_EPOCH": 444, "BSTAR": 0.0014528364, "MEAN_MOTION_DOT": 0.0008588, "MEAN_MOTION_DDOT": 0}, "tle": {"line1": "1 66537U 25265X   25351.15270676  .00085880  00000+0  14528-2 0  9997", "line2": "2 66537  43.0011  28.1144 0001512 268.1214  91.9473 15.50595338  4440"}}, "geometry": {"type": "Point", "coordinates": [77.13346791319671, 36.46664523834129]}}, {"type": "Feature", "properties": {"norad_id": 66538, "name": "STARLINK-35577", "group": "last-30-days", "lat": 37.240724042414186, "lon": 79.31200013786916, "alt_km": 409.8160656480186, "timestamp": "2025-12-17T17:50:17.972075+00:00", "meta": {"OBJECT_NAME": "STARLINK-35577", "OBJECT_ID": "2025-265Y", "EPOCH": "2025-12-17T03:39:24.183072", "MEAN_MOTION": 15.50610909, "ECCENTRICITY": 0.00014966, "INCLINATION": 43.0006, "RA_OF_ASC_NODE": 28.1088, "ARG_OF_PERICENTER": 245.6332, "MEAN_ANOMALY": 114.4372, "EPHEMERIS_TYPE": 0, "CLASSIFICATION_TYPE": "U", "NORAD_CAT_ID": 66538, "ELEMENT_SET_NO": 999, "REV_AT_EPOCH": 444, "BSTAR": 0.00094181895, "MEAN_MOTION_DOT": 0.00055365, "MEAN_MOTION_DDOT": 0}, "tle": {"line1": "1 66538U 25265Y   25351.15236323  .00055365  00000+0  94182-3 0  9999", "line2": "2 66538  43.0006  28.1088 0001496 245.6332 114.4372 15.50610909  4445"}}, "geometry": {"type": "Point", "coordinates": [79.31200013786916, 37.240724042414186]}}, {"type": "Feature", "properties": {"norad_id": 66539, "name": "STARLINK-35697", "group": "last-30-days", "lat": 38.03486660208126, "lon": 81.7327320076768, "alt_km": 406.83379458901436, "timestamp": "2025-12-17T17:50:17.972086+00:00", "meta": {"OBJECT_NAME": "STARLINK-35697", "OBJECT_ID": "2025-265Z", "EPOCH": "2025-12-17T03:38:53.810016", "MEAN_MOTION": 15.50646758, "ECCENTRICITY": 0.00026959, "INCLINATION": 43, "RA_OF_ASC_NODE": 28.1074, "ARG_OF_PERICENTER": 76.2483, "MEAN_ANOMALY": 283.8677, "EPHEMERIS_TYPE": 0, "CLASSIFICATION_TYPE": "U", "NORAD_CAT_ID": 66539, "ELEMENT_SET_NO": 999, "REV_AT_EPOCH": 444, "BSTAR": 0.00091549322, "MEAN_MOTION_DOT": 0.0005387, "MEAN_MOTION_DDOT": 0}, "tle": {"line1": "1 66539U 25265Z   25351.15201169  .00053870  00000+0  91549-3 0  9993", "line2": "2 66539  43.0000  28.1074 0002695  76.2483 283.8677 15.50646758  4442"}}, "geometry": {"type": "Point", "coordinates": [81.7327320076768, 38.03486660208126]}}, {"type": "Feature", "properties": {"norad_id": 66540, "name": "STARLINK-35818", "group": "last-30-days", "lat": 38.68493176348825, "lon": 83.88109924331783, "alt_km": 406.09927463624354, "timestamp": "2025-12-17T17:50:17.972115+00:00", "meta": {"OBJECT_NAME": "STARLINK-35818", "OBJECT_ID": "2025-265AA", "EPOCH": "2025-12-17T03:38:25.281600", "MEAN_MOTION": 15.50632445, "ECCENTRICITY": 0.00038131, "INCLINATION": 42.9995, "RA_OF_ASC_NODE": 28.105, "ARG_OF_PERICENTER": 48.9225, "MEAN_ANOMALY": 311.1964, "EPHEMERIS_TYPE": 0, "CLASSIFICATION_TYPE": "U", "NORAD_CAT_ID": 66540, "ELEMENT_SET_NO": 999, "REV_AT_EPOCH": 444, "BSTAR": 0.00051079701, "MEAN_MOTION_DOT": 0.00029801, "MEAN_MOTION_DDOT": 0}, "tle": {"line1": "1 66540U 25265AA  25351.15168150  .00029801  00000+0  51080-3 0  9990", "line2": "2 66540  42.9995  28.1050 0003813  48.9225 311.1964 15.50632445  4444"}}, "geometry": {"type": "Point", "coordinates": [83.88109924331783, 38.68493176348825]}}, {"type": "Feature", "properties": {"norad_id": 66541, "name": "STARLINK-35796", "group": "last-30-days", "lat": -40.61336504535859, "lon": -41.96872782981827, "alt_km": 446.48341670330865, "timestamp": "2025-12-17T17:50:17.972140+00:00", "meta": {"OBJECT_NAME": "STARLINK-35796", "OBJECT_ID": "2025-265AB", "EPOCH": "2025-12-17T08:00:04.999680", "MEAN_MOTION": 15.40688092, "ECCENTRICITY": 0.00012473, "INCLINATION": 43.001, "RA_OF_ASC_NODE": 27.3469, "ARG_OF_PERICENTER": 284.2338, "MEAN_ANOMALY": 247.0273, "EPHEMERIS_TYPE": 0, "CLASSIFICATION_TYPE": "U", "NORAD_CAT_ID": 66541, "ELEMENT_SET_NO": 999, "REV_AT_EPOCH": 573, "BSTAR": 0.00021497335, "MEAN_MOTION_DOT": 8.683e-05, "MEAN_MOTION_DDOT": 0}, "tle": {"line1": "1 66541U 25265AB  25351.33339120  .00008683  00000+0  21497-3 0  9992", "line2": "2 66541  43.0010  27.3469 0001247 284.2338 247.0273 15.40688092  5730"}}, "geometry": {"type": "Point", "coordinates": [-41.96872782981827, -40.61336504535859]}}, {"type": "Feature", "properties": {"norad_id": 66542, "name": "STARLINK-35833", "group": "last-30-days", "lat": -15.448443426412616, "lon": 7.613092719963491, "alt_km": 445.2435483031404, "timestamp": "2025-12-17T17:50:17.972152+00:00", "meta": {"OBJECT_NAME": "STARLINK-35833", "OBJECT_ID": "2025-265AC", "EPOCH": "2025-12-17T08:00:04.999680", "MEAN_MOTION": 15.40675979, "ECCENTRICITY": 7.925e-05, "INCLINATION": 43.0007, "RA_OF_ASC_NODE": 27.2265, "ARG_OF_PERICENTER": 287.7802, "MEAN_ANOMALY": 293.2546, "EPHEMERIS_TYPE": 0, "CLASSIFICATION_TYPE": "U", "NORAD_CAT_ID": 66542, "ELEMENT_SET_NO": 999, "REV_AT_EPOCH": 573, "BSTAR": 0.00037181138, "MEAN_MOTION_DOT": 0.00015247, "MEAN_MOTION_DDOT": 0}, "tle": {"line1": "1 66542U 25265AC  25351.33339120  .00015247  00000+0  37181-3 0  9994", "line2": "2 66542  43.0007  27.2265 0000792 287.7802 293.2546 15.40675979  5734"}}, "geometry": {"type": "Point", "coordinates": [7.613092719963491, -15.448443426412616]}}, {"type": "Feature", "properties": {"norad_id": 66543, "name": "STARLINK-35315", "group": "last-30-days", "lat": 31.948728597922308, "lon": 66.68798252518322, "alt_km": 416.9119736670227, "timestamp": "2025-12-17T17:50:17.972163+00:00", "meta": {"OBJECT_NAME": "STARLINK-35315", "OBJECT_ID": "2025-265AD", "EPOCH": "2025-12-17T05:13:30.551808", "MEAN_MOTION": 15.47188363, "ECCENTRICITY": 0.00074969, "INCLINATION": 43.0009, "RA_OF_ASC_NODE": 27.7409, "ARG_OF_PERICENTER": 349.7572, "MEAN_ANOMALY": 10.3133, "EPHEMERIS_TYPE": 0, "CLASSIFICATION_TYPE": "U", "NORAD_CAT_ID": 66543, "ELEMENT_SET_NO": 999, "REV_AT_EPOCH": 445, "BSTAR": 0.0015235923, "MEAN_MOTION_DOT": 0.00079898, "MEAN_MOTION_DDOT": 0}, "tle": {"line1": "1 66543U 25265AD  25351.21771472  .00079898  00000+0  15236-2 0  9990", "line2": "2 66543  43.0009  27.7409 0007496 349.7572  10.3133 15.47188363  4454"}}, "geometry": {"type": "Point", "coordinates": [66.68798252518322, 31.948728597922308]}}, {"type": "Feature", "properties": {"norad_id": 66544, "name": "STARLINK-35728", "group": "last-30-days", "lat": 40.959061653931215, "lon": 93.30781548611947, "alt_km": 409.04287005705646, "timestamp": "2025-12-17T17:50:17.972174+00:00", "meta": {"OBJECT_NAME": "STARLINK-35728", "OBJECT_ID": "2025-265AE", "EPOCH": "2025-12-17T03:36:26.094528", "MEAN_MOTION": 15.50584137, "ECCENTRICITY": 0.00011565, "INCLINATION": 42.9979, "RA_OF_ASC_NODE": 28.0939, "ARG_OF_PERICENTER": 269.0405, "MEAN_ANOMALY": 91.0322, "EPHEMERIS_TYPE": 0, "CLASSIFICATION_TYPE": "U", "NORAD_CAT_ID": 66544, "ELEMENT_SET_NO": 999, "REV_AT_EPOCH": 444, "BSTAR": 0.00095997873, "MEAN_MOTION_DOT": 0.00056392, "MEAN_MOTION_DDOT": 0}, "tle": {"line1": "1 66544U 25265AE  25351.15030202  .00056392  00000+0  95998-3 0  9991", "line2": "2 66544  42.9979  28.0939 0001156 269.0405  91.0322 15.50584137  4445"}}, "geometry": {"type": "Point", "coordinates": [93.30781548611947, 40.959061653931215]}}]}